{"type": "FeatureCollection", "features": [ {"type": "Feature", "properties": {"norad_id": 64902, "name": "CO3D 2", "group": "resource", "lat": 1.904461588848401, "lon": -108.98870966354644, "alt_km": 508.28390273799505, "timestamp": "2025-12-20T14:38:01.616586+00:00", "meta": {"OBJECT_NAME": "CO3D 2", "OBJECT_ID": "2025-156D", "EPOCH": "2025-12-18T23:56:22.431840", "MEAN_MOTION": 15.20201426, "ECCENTRICITY": 6.127e-05, "INCLINATION": 97.4339, "RA_OF_ASC_NODE": 69.1735, "ARG_OF_PERICENTER": 62.3895, "MEAN_ANOMALY": 297.7402, "EPHEMERIS_TYPE": 0, "CLASSIFICATION_TYPE": "U", "NORAD_CAT_ID": 64902, "ELEMENT_SET_NO": 999, "REV_AT_EPOCH": 2215, "BSTAR": 2.1688322e-05, "MEAN_MOTION_DOT": 4.02e-06, "MEAN_MOTION_DDOT": 0}, "tle": {"line1": "1 64902U 25156D   25352.99748185  .00000402  00000+0  21688-4 0  9992", "line2": "2 64902  97.4339  69.1735 0000612  62.3895 297.7402 15.20201426 22155"}}, "geometry": {"type": "Point", "coordinates": [-108.98870966354644, 1.904461588848401]}}, {"type": "Feature", "properties": {"norad_id": 64903, "name": "CO3D 1", "group": "resource", "lat": 2.7296761195579737, "lon": -108.87999231380311, "alt_km": 508.1099073639325, "timestamp": "2025-12-20T14:38:01.616596+00:00", "meta": {"OBJECT_NAME": "CO3D 1", "OBJECT_ID": "2025-156E", "EPOCH": "2025-12-20T05:57:30.239424", "MEAN_MOTION": 15.20195514, "ECCENTRICITY": 9.267e-05, "INCLINATION": 97.4345, "RA_OF_ASC_NODE": 70.407, "ARG_OF_PERICENTER": 75.5131, "MEAN_ANOMALY": 284.6207, "EPHEMERIS_TYPE": 0, "CLASSIFICATION_TYPE": "U", "NORAD_CAT_ID": 64903, "ELEMENT_SET_NO": 999, "REV_AT_EPOCH": 2234, "BSTAR": 0.00018326379, "MEAN_MOTION_DOT": 3.901e-05, "MEAN_MOTION_DDOT": 0}, "tle": {"line1": "1 64903U 25156E   25354.24826666  .00003901  00000+0  18326-3 0  9995", "line2": "2 64903  97.4345  70.4070 0000926  75.5131 284.6207 15.20195514 22346"}}, "geometry": {"type": "Point", "coordinates": [-108.87999231380311, 2.7296761195579737]}}, {"type": "Feature", "properties": {"norad_id": 66514, "name": "SENTINEL-6B", "group": "resource", "lat": 34.318566054092614, "lon": 163.74822931128287, "alt_km": 1336.345348438037, "timestamp": "2025-12-20T14:38:01.616606+00:00", "meta": {"OBJECT_NAME": "SENTINEL-6B", "OBJECT_ID": "2025-264A", "EPOCH": "2025-12-12T06:01:21.428544", "MEAN_MOTION": 12.81479578, "ECCENTRICITY": 0.00078482, "INCLINATION": 66.0385, "RA_OF_ASC_NODE": 163.4531, "ARG_OF_PERICENTER": 270.1376, "MEAN_ANOMALY": 89.874, "EPHEMERIS_TYPE": 0, "CLASSIFICATION_TYPE": "U", "NORAD_CAT_ID": 66514, "ELEMENT_SET_NO": 999, "REV_AT_EPOCH": 322, "BSTAR": 0.00018573353, "MEAN_MOTION_DOT": -1.8e-07, "MEAN_MOTION_DDOT": 0}, "tle": {"line1": "1 66514U 25264A   25346.25094246 -.00000018  00000+0  18573-3 0  9999", "line2": "2 66514  66.0385 163.4531 0007848 270.1376  89.8740 12.81479578  3223"}}, "geometry": {"type": "Point", "coordinates": [163.74822931128287, 34.318566054092614]}}]}